NORAD_CAT_ID,OBJECT_NAME,OBJECT_TYPE,EPOCH,MEAN_MOTION,ECCENTRICITY,INCLINATION,RA_OF_ASC_NODE,ARG_OF_PERICENTER,MEAN_ANOMALY,BSTAR,MEAN_MOTION_DOT,MEAN_MOTION_DDOT,TLE_LINE0,TLE_LINE1,TLE_LINE2,SEMIMAJOR_AXIS,PERIOD,APOGEE,PERIGEE,DECAYED
53179.0,STARLINK-4276,PAYLOAD,2023-10-09 22:53:40,15.08843372,0.0001707,53.2166,121.9834,73.3311,286.7869,3.2726e-05,2.33e-06,0.0,0 STARLINK-4276,1 53179U 22083AZ  23282.95394675  .00000233  00000-0  32726-4 0  9997,2 53179  53.2166 121.9834 0001707  73.3311 286.7869 15.08843372 69441,6917.87,95.437,540.916,538.554,0.0
53179.0,STARLINK-4276,PAYLOAD,2023-10-10 13:12:09,15.08844738,0.000157,53.2153,119.3064,85.2425,274.8747,0.00020222,2.932e-05,0.0,0 STARLINK-4276,1 53179U 22083AZ  23283.55010604  .00002932  00000-0  20222-3 0  9996,2 53179  53.2153 119.3064 0001570  85.2425 274.8747 15.08844738 68897,6917.866,95.437,540.817,538.645,0.0
53179.0,STARLINK-4276,PAYLOAD,2023-10-10 19:33:41,15.08852536,0.0001516,53.2163,118.1177,81.8285,278.2879,0.0001877,2.702e-05,0.0,0 STARLINK-4276,1 53179U 22083AZ  23283.81506171  .00002702  00000-0  18770-3 0  9994,2 53179  53.2163 118.1177 0001516  81.8285 278.2879 15.08852536 68930,6917.842,95.437,540.756,538.658,0.0
53179.0,STARLINK-4276,PAYLOAD,2023-10-10 22:44:27,15.08855762,0.0001571,53.216,117.523,81.0036,279.1134,0.00029668,4.439e-05,0.0,0 STARLINK-4276,1 53179U 22083AZ  23283.94753993  .00004439  00000-0  29668-3 0  9991,2 53179  53.2160 117.5230 0001571  81.0036 279.1134 15.08855762 69598,6917.832,95.437,540.784,538.61,0.0
53179.0,STARLINK-4276,PAYLOAD,2023-10-11 06:41:23,15.08842054,0.0001629,53.2168,116.0361,86.7784,273.3395,0.00013827,1.913e-05,0.0,0 STARLINK-4276,1 53179U 22083AZ  23284.27874617  .00001913  00000-0  13827-3 0  9999,2 53179  53.2168 116.0361 0001629  86.7784 273.3395 15.08842054 69642,6917.874,95.437,540.866,538.612,0.0
53179.0,STARLINK-4276,PAYLOAD,2023-10-11 13:02:56,15.08841593,0.0001615,53.216,114.8471,85.9399,274.1778,0.00014264,1.983e-05,0.0,0 STARLINK-4276,1 53179U 22083AZ  23284.54370690  .00001983  00000-0  14264-3 0  9994,2 53179  53.2160 114.8471 0001615  85.9399 274.1778 15.08841593 69045,6917.876,95.437,540.858,538.623,0.0
53179.0,STARLINK-4276,PAYLOAD,2023-10-12 08:07:33,15.08851369,0.0001378,53.2147,111.277,90.931,269.184,0.00025245,3.733e-05,0.0,0 STARLINK-4276,1 53179U 22083AZ  23285.33858076  .00003733  00000-0  25245-3 0  9997,2 53179  53.2147 111.2770 0001378  90.9310 269.1840 15.08851369 69808,6917.846,95.437,540.664,538.757,0.0
53179.0,STARLINK-4276,PAYLOAD,2023-10-12 12:53:42,15.08849867,0.0001385,53.2147,110.3847,90.7837,269.3314,0.00024355,3.591e-05,0.0,0 STARLINK-4276,1 53179U 22083AZ  23285.53730078  .00003591  00000-0  24355-3 0  9993,2 53179  53.2147 110.3847 0001385  90.7837 269.3314 15.08849867 69193,6917.85,95.437,540.673,538.757,0.0
53179.0,STARLINK-4276,PAYLOAD,2023-10-12 19:15:15,15.08855246,0.000132,53.2149,109.1952,79.6889,280.4252,0.00052992,8.159e-05,0.0,0 STARLINK-4276,1 53179U 22083AZ  23285.80225899  .00008159  00000-0  52992-3 0  9996,2 53179  53.2149 109.1952 0001320  79.6889 280.4252 15.08855246 69238,6917.834,95.437,540.612,538.786,0.0
53179.0,STARLINK-4276,PAYLOAD,2023-10-13 11:09:06,15.08840325,0.000142,53.2159,106.2242,81.7059,278.4094,9.3777e-05,1.205e-05,0.0,0 STARLINK-4276,1 53179U 22083AZ  23286.46466281  .00001205  00000-0  93777-4 0  9993,2 53179  53.2159 106.2242 0001420  81.7059 278.4094 15.08840325 69977,6917.879,95.438,540.727,538.762,0.0
53179.0,STARLINK-4276,PAYLOAD,2023-10-13 19:06:02,15.08839008,0.0001278,53.2148,104.7353,93.6968,266.417,0.0001044,1.374e-05,0.0,0 STARLINK-4276,1 53179U 22083AZ  23286.79586483  .00001374  00000-0  10440-3 0  9998,2 53179  53.2148 104.7353 0001278  93.6968 266.4170 15.08839008 69386,6917.883,95.438,540.633,538.864,0.0
53179.0,STARLINK-4276,PAYLOAD,2023-10-14 10:59:54,15.08838993,0.0001413,53.2157,101.7634,89.2653,270.8501,3.1703e-05,2.17e-06,0.0,0 STARLINK-4276,1 53179U 22083AZ  23287.45826410  .00000217  00000-0  31703-4 0  9990,2 53179  53.2157 101.7634 0001413  89.2653 270.8501 15.08838993 69488,6917.883,95.438,540.726,538.771,0.0
53179.0,STARLINK-4276,PAYLOAD,2023-10-14 18:56:49,15.08838782,0.0001335,53.2152,100.2746,86.0124,274.1021,4.4713e-05,4.24e-06,0.0,0 STARLINK-4276,1 53179U 22083AZ  23287.78946557  .00000424  00000-0  44713-4 0  9996,2 53179  53.2152 100.2746 0001335  86.0124 274.1021 15.08838782 70170,6917.884,95.438,540.673,538.826,0.0
53179.0,STARLINK-4276,PAYLOAD,2023-10-15 04:29:08,15.0883708,0.0001329,53.2152,98.4905,87.7974,272.317,7.8665e-05,9.64e-06,0.0,0 STARLINK-4276,1 53179U 22083AZ  23288.18690718  .00000964  00000-0  78665-4 0  9998,2 53179  53.2152  98.4905 0001329  87.7974 272.3170 15.08837080 69598,6917.889,95.438,540.674,538.835,0.0
53179.0,STARLINK-4276,PAYLOAD,2023-10-15 20:23:00,15.0884269,0.0001354,53.2154,95.5159,86.7101,273.4046,0.00022187,3.245e-05,0.0,0 STARLINK-4276,1 53179U 22083AZ  23288.84930793  .00003245  00000-0  22187-3 0  9993,2 53179  53.2154  95.5159 0001354  86.7101 273.4046 15.08842690 69696,6917.872,95.437,540.674,538.8,0.0
53179.0,STARLINK-4276,PAYLOAD,2023-10-16 04:19:56,15.08840649,0.0001508,53.2162,94.0275,80.6995,279.4167,0.00016299,2.307e-05,0.0,0 STARLINK-4276,1 53179U 22083AZ  23289.18050962  .00002307  00000-0  16299-3 0  9997,2 53179  53.2162  94.0275 0001508  80.6995 279.4167 15.08840649 70383,6917.878,95.438,540.787,538.7,0.0
53179.0,STARLINK-4276,PAYLOAD,2023-10-16 17:03:01,15.08841195,0.0001599,53.217,91.6483,81.4503,278.667,0.00012202,1.655e-05,0.0,0 STARLINK-4276,1 53179U 22083AZ  23289.71043166  .00001655  00000-0  12202-3 0  9999,2 53179  53.2170  91.6483 0001599  81.4503 278.6670 15.08841195 69824,6917.877,95.437,540.848,538.636,0.0
53179.0,STARLINK-4276,PAYLOAD,2023-10-17 10:32:15,15.08844354,0.000178,53.2177,88.3803,81.9867,278.1327,0.00011934,1.612e-05,0.0,0 STARLINK-4276,1 53179U 22083AZ  23290.43907137  .00001612  00000-0  11934-3 0  9991,2 53179  53.2177  88.3803 0001780  81.9867 278.1327 15.08844354 70578,6917.867,95.437,540.963,538.501,0.0
53179.0,STARLINK-4276,PAYLOAD,2023-10-17 16:53:48,15.08848387,0.0001623,53.2168,87.1917,81.6277,278.4899,0.000216,3.152e-05,0.0,0 STARLINK-4276,1 53179U 22083AZ  23290.70402865  .00003152  00000-0  21600-3 0  9991,2 53179  53.2168  87.1917 0001623  81.6277 278.4899 15.08848387 69978,6917.855,95.437,540.843,538.597,0.0
53179.0,STARLINK-4276,PAYLOAD,2023-10-18 19:55:21,15.08846855,0.0001438,53.2153,82.134,94.488,265.6276,0.00016901,2.403e-05,0.0,0 STARLINK-4276,1 53179U 22083AZ  23291.83010849  .00002403  00000-0  16901-3 0  9999,2 53179  53.2153  82.1340 0001438  94.4880 265.6276 15.08846855 70789,6917.859,95.437,540.719,538.73,0.0
53179.0,STARLINK-4276,PAYLOAD,2023-10-19 10:13:50,15.08832834,0.0002202,53.2146,79.4582,88.7003,271.4242,-6.9265e-05,-1.39e-05,0.0,0 STARLINK-4276,1 53179U 22083AZ  23292.42628072 -.00001390  00000-0 -69265-4 0  9996,2 53179  53.2146  79.4582 0002202  88.7003 271.4242 15.08832834 70871,6917.902,95.438,541.291,538.244,0.0
53179.0,STARLINK-4276,PAYLOAD,2023-10-19 16:35:23,15.08836667,0.0002229,53.2142,78.2688,88.8153,271.3094,1.7074e-05,-1.7e-07,0.0,0 STARLINK-4276,1 53179U 22083AZ  23292.69124040 -.00000017  00000-0  17074-4 0  9996,2 53179  53.2142  78.2688 0002229  88.8153 271.3094 15.08836667 70273,6917.891,95.438,541.298,538.214,0.0
53179.0,STARLINK-4276,PAYLOAD,2023-10-20 10:04:37,15.08844515,0.0002181,53.2151,74.9977,92.0076,268.1166,0.00025992,3.851e-05,0.0,0 STARLINK-4276,1 53179U 22083AZ  23293.41987881  .00003851  00000-0  25992-3 0  9992,2 53179  53.2151  74.9977 0002181  92.0076 268.1166 15.08844515 71024,6917.867,95.437,541.24,538.223,0.0
53179.0,STARLINK-4276,PAYLOAD,2023-10-21 11:30:47,15.08850186,0.0001809,53.2169,70.2372,86.4088,273.7111,0.00023898,3.518e-05,0.0,0 STARLINK-4276,1 53179U 22083AZ  23294.47971510  .00003518  00000-0  23898-3 0  9994,2 53179  53.2169  70.2372 0001809  86.4088 273.7111 15.08850186 70546,6917.849,95.437,540.966,538.463,0.0
53179.0,STARLINK-4276,PAYLOAD,2023-10-21 19:27:42,15.08860822,0.0001291,53.2179,68.7528,77.0407,283.0729,0.00034657,5.235e-05,0.0,0 STARLINK-4276,1 53179U 22083AZ  23294.81090830  .00005235  00000-0  34657-3 0  9992,2 53179  53.2179  68.7528 0001291  77.0407 283.0729 15.08860822 71232,6917.817,95.436,540.575,538.789,0.0
53179.0,STARLINK-4276,PAYLOAD,2023-10-22 01:49:15,15.0884102,0.000304,53.2177,67.5635,72.1576,287.9747,-8.3118e-05,-1.611e-05,0.0,0 STARLINK-4276,1 53179U 22083AZ  23295.07587894 -.00001611  00000-0 -83118-4 0  9995,2 53179  53.2177  67.5635 0003040  72.1576 287.9747 15.08841020 71279,6917.877,95.437,541.845,537.639,0.0
53179.0,STARLINK-4276,PAYLOAD,2023-10-22 12:56:57,15.08825997,0.0001316,53.2177,65.4822,69.4598,290.6535,-0.00037036,-6.175e-05,0.0,0 STARLINK-4276,1 53179U 22083AZ  23295.53955948 -.00006175  00000-0 -37036-3 0  9992,2 53179  53.2177  65.4822 0001316  69.4598 290.6535 15.08825997 70709,6917.923,95.438,540.699,538.878,0.0
53179.0,STARLINK-4276,PAYLOAD,2023-10-22 17:43:07,15.08831621,0.0001454,53.2169,64.5903,74.3807,285.7345,-0.00011509,-2.119e-05,0.0,0 STARLINK-4276,1 53179U 22083AZ  23295.73827849 -.00002119  00000-0 -11509-3 0  9993,2 53179  53.2169  64.5903 0001454  74.3807 285.7345 15.08831621 70739,6917.906,95.438,540.777,538.765,0.0
53179.0,STARLINK-4276,PAYLOAD,2023-10-23 01:40:03,15.08836903,0.0001428,53.2166,63.1038,75.3368,284.7782,0.00029409,4.395e-05,0.0,0 STARLINK-4276,1 53179U 22083AZ  23296.06948064  .00004395  00000-0  29409-3 0  9997,2 53179  53.2166  63.1038 0001428  75.3368 284.7782 15.08836903 70781,6917.89,95.438,540.743,538.767,0.0
53179.0,STARLINK-4276,PAYLOAD,2023-10-24 01:30:50,15.08852165,0.0001442,53.2156,58.6446,74.9995,285.1157,0.00071063,0.00011044,0.0,0 STARLINK-4276,1 53179U 22083AZ  23297.06308100  .00011044  00000-0  71063-3 0  9991,2 53179  53.2156  58.6446 0001442  74.9995 285.1157 15.08852165 71576,6917.843,95.437,540.706,538.711,0.0
